norad_id,name,regime,epoch,line1,line2,inclination,eccentricity,mean_motion,raan,arg_pericenter,mean_anomaly
36395,SDO,IGO,20351.36746903,1 36395U 10005A   20351.36746903 -.00000073  00000-0  00000-0 0    16\,2 36395  30.6321 118.2484 0003011 267.3924  90.3761  1.00270343 39917,30.6321,0.0003011,1.00270343,118.2484,267.3924,90.3761
36395,SDO,IGO,20352.37249581,1 36395U 10005A   20352.37249581 -.00000072  00000-0  00000-0 0    17\,2 36395  30.6342 118.2314 0003029 266.3507  94.2263  1.00270395 39936,30.6342,0.0003029,1.00270395,118.2314,266.3507,94.2263
36395,SDO,IGO,20353.36918440,1 36395U 10005A   20353.36918440 -.00000069  00000-0  00000-0 0    10\,2 36395  30.6360 118.2145 0003187 266.5106  93.8635  1.00270446 39946,30.636,0.0003187,1.00270446,118.2145,266.5106,93.8635
36395,SDO,IGO,20354.37400328,1 36395U 10005A   20354.37400328 -.00000065  00000-0  00000-0 0    19\,2 36395  30.6401 118.1985 0001400 234.5835 128.5474  1.00270537 39952,30.6401,0.00014,1.00270537,118.1985,234.5835,128.5474
36395,SDO,IGO,20355.37880885,1 36395U 10005A   20355.37880885 -.00000060  00000-0  00000-0 0    15\,2 36395  30.6420 118.1819 0001405 234.4827 131.3772  1.00270592 39969,30.642,0.0001405,1.00270592,118.1819,234.4827,131.3772
36395,SDO,IGO,20356.36598311,1 36395U 10005A   20356.36598311 -.00000055  00000-0  00000-0 0    19\,2 36395  30.6438 118.1658 0001354 233.9268 128.2975  1.00270620 39978,30.6438,0.0001354,1.0027062,118.1658,233.9268,128.2975
36395,SDO,IGO,20357.63292927,1 36395U 10005A   20357.63292927 -.00000052  00000-0  00000+0 0  3901\,2 36395  30.6502 118.1442 0000395 216.7966 242.7975  1.00270641 39952,30.6502,3.95e-05,1.00270641,118.1442,216.7966,242.7975
36395,SDO,IGO,20358.50165587,1 36395U 10005A   20358.50165587 -.00000051  00000-0  00000-0 0    18\,2 36395  30.6517 118.1302 0000371 213.9793 199.2201  1.00270662 39999,30.6517,3.71e-05,1.00270662,118.1302,213.9793,199.2201
36395,SDO,IGO,20359.36111153,1 36395U 10005A   20359.36111153 -.00000051  00000-0  00000+0 0  3914\,2 36395  30.6532 118.1162 0000338 210.8988 152.5590  1.00270633 39974,30.6532,3.38e-05,1.00270633,118.1162,210.8988,152.559
36395,SDO,IGO,20360.33412009,1 36395U 10005A   20360.33412009 -.00000053  00000-0  00000-0 0    18\,2 36395  30.6548 118.1005 0000305 208.3150 146.3931  1.00270591 40003,30.6548,3.05e-05,1.00270591,118.1005,208.315,146.3931
36395,SDO,IGO,20361.36930226,1 36395U 10005A   20361.36930226 -.00000056  00000-0  00000-0 0    11\,2 36395  30.6565 118.0837 0000264 204.2652 164.1372  1.00270519 40029,30.6565,2.64e-05,1.00270519,118.0837,204.2652,164.1372
36395,SDO,IGO,20362.43799729,1 36395U 10005A   20362.43799729 -.00000059  00000-0  00000-0 0    14\,2 36395  30.6583 118.0665 0000220 199.7345 194.4600  1.00270434 40034,30.6583,2.2e-05,1.00270434,118.0665,199.7345,194.46
36395,SDO,IGO,20364.33260604,1 36395U 10005A   20364.33260604 -.00000065  00000-0  00000-0 0    17\,2 36395  30.6614 118.0357 0000149 203.3468 154.7882  1.00270207 40045,30.6614,1.49e-05,1.00270207,118.0357,203.3468,154.7882
36395,SDO,IGO,20365.34862780,1 36395U 10005A   20365.34862780 -.00000067  00000-0  00000-0 0    14\,2 36395  30.6630 118.0191 0000116 214.0914 150.8197  1.00270063 40066,30.663,1.16e-05,1.00270063,118.0191,214.0914,150.8197
36395,SDO,IGO,21001.32063836,1 36395U 10005A   21001.32063836 -.00000067  00000-0  00000-0 0    15\,2 36395  30.6663 117.9866 0000079 253.5354 103.2556  1.00269757 40073,30.6663,7.9e-06,1.00269757,117.9866,253.5354,103.2556
36395,SDO,IGO,21002.30233780,1 36395U 10005A   21002.30233780 -.00000065  00000-0  00000-0 0    19\,2 36395  30.6679 117.9703 0000093 272.5171  78.6587  1.00269600 40081,30.6679,9.3e-06,1.002696,117.9703,272.5171,78.6587
36395,SDO,IGO,21003.29257140,1 36395U 10005A   21003.29257140 -.00000063  00000-0  00000-0 0    12\,2 36395  30.6696 117.9537 0000130 278.3220  70.3188  1.00269445 40090,30.6696,1.3e-05,1.00269445,117.9537,278.322,70.3188
36395,SDO,IGO,21004.31160563,1 36395U 10005A   21004.31160563 -.00000062  00000-0  00000-0 0    17\,2 36395  30.6713 117.9365 0000264 273.7438  82.7574  1.00269278 40109,30.6713,2.64e-05,1.00269278,117.9365,273.7438,82.7574
36395,SDO,IGO,21005.29133976,1 36395U 10005A   21005.29133976 -.00000062  00000-0  00000-0 0    13\,2 36395  30.6730 117.9198 0000314 271.2737  78.9016  1.00269159 40110,30.673,3.14e-05,1.00269159,117.9198,271.2737,78.9016
36395,SDO,IGO,21006.36063063,1 36395U 10005A   21006.36063063 -.00000064  00000-0  00000-0 0    13\,2 36395  30.6749 117.9015 0000396 268.0765 108.1016  1.00269050 40131,30.6749,3.96e-05,1.0026905,117.9015,268.0765,108.1016
36395,SDO,IGO,21007.31818230,1 36395U 10005A   21007.31818230 -.00000068  00000-0  00000-0 0    17\,2 36395  30.6766 117.8851 0000456 265.9277  95.9164  1.00268985 40142,30.6766,4.56e-05,1.00268985,117.8851,265.9277,95.9164
36395,SDO,IGO,21008.29260306,1 36395U 10005A   21008.29260306 -.00000074  00000-0  00000-0 0    17\,2 36395  30.6784 117.8683 0000502 263.5853  90.0143  1.00268946 40141,30.6784,5.02e-05,1.00268946,117.8683,263.5853,90.0143
36395,SDO,IGO,21009.32410650,1 36395U 10005A   21009.32410650 -.00000082  00000-0  00000-0 0    10\,2 36395  30.6804 117.8505 0000574 261.3469 104.6139  1.00268928 40164,30.6804,5.74e-05,1.00268928,117.8505,261.3469,104.6139
36395,SDO,IGO,21010.30882817,1 36395U 10005A   21010.30882817 -.00000088  00000-0  00000-0 0    14\,2 36395  30.6822 117.8336 0000625 258.3933 103.0409  1.00268937 40179,30.6822,6.25e-05,1.00268937,117.8336,258.3933,103.0409
36395,SDO,IGO,21011.29907959,1 36395U 10005A   21011.29907959 -.00000094  00000-0  00000-0 0    15\,2 36395  30.6841 117.8167 0000669 254.8939 104.0101  1.00268967 40170,30.6841,6.69e-05,1.00268967,117.8167,254.8939,104.0101
36395,SDO,IGO,21012.33005019,1 36395U 10005A   21012.33005019 -.00000097  00000-0  00000-0 0    10\,2 36395  30.6860 117.7991 0000722 251.9192 119.1537  1.00269008 40193,30.686,7.22e-05,1.00269008,117.7991,251.9192,119.1537
36395,SDO,IGO,21013.33127542,1 36395U 10005A   21013.33127542 -.00000097  00000-0  00000+0 0  4043\,2 36395  30.6879 117.7821 0000747 248.6241 123.8803  1.00269063 40177,30.6879,7.47e-05,1.00269063,117.7821,248.6241,123.8803
36395,SDO,IGO,21014.33704487,1 36395U 10005A   21014.33704487 -.00000094  00000-0  00000-0 0    14\,2 36395  30.6898 117.7652 0000744 245.5090 130.0678  1.00269125 40219,30.6898,7.44e-05,1.00269125,117.7652,245.509,130.0678
36395,SDO,IGO,21015.29393868,1 36395U 10005A   21015.29393868 -.00000090  00000-0  00000-0 0    13\,2 36395  30.6915 117.7492 0000801 245.7707 115.2340  1.00269175 40229,30.6915,8.01e-05,1.00269175,117.7492,245.7707,115.234
36395,SDO,IGO,21016.29259986,1 36395U 10005A   21016.29259986 -.00000085  00000-0  00000-0 0    10\,2 36395  30.6933 117.7326 0000817 245.6244 115.8863  1.00269225 40230,30.6933,8.17e-05,1.00269225,117.7326,245.6244,115.8863
36395,SDO,IGO,21017.29030418,1 36395U 10005A   21017.29030418 -.00000080  00000-0  00000-0 0    13\,2 36395  30.6950 117.7162 0000808 245.3745 116.2968  1.00269269 40240,30.695,8.08e-05,1.00269269,117.7162,245.3745,116.2968
36395,SDO,IGO,21018.26101128,1 36395U 10005A   21018.26101128 -.00000076  00000-0  00000-0 0    13\,2 36395  30.6966 117.7003 0000794 245.3415 106.7448  1.00269302 40244,30.6966,7.94e-05,1.00269302,117.7003,245.3415,106.7448
36395,SDO,IGO,21019.25882799,1 36395U 10005A   21019.25882799 -.00000073  00000-0  00000-0 0    10\,2 36395  30.6982 117.6840 0000729 243.9398 108.3483  1.00269329 40259,30.6982,7.29e-05,1.00269329,117.684,243.9398,108.3483
36395,SDO,IGO,21020.32668691,1 36395U 10005A   21020.32668691 -.00000072  00000-0  00000-0 0    12\,2 36395  30.6999 117.6666 0000799 248.2948 129.4780  1.00269315 40270,30.6999,7.99e-05,1.00269315,117.6666,248.2948,129.478
36395,SDO,IGO,21021.29408851,1 36395U 10005A   21021.29408851 -.00000073  00000-0  00000-0 0    10\,2 36395  30.7015 117.6507 0000682 246.5312 120.4644  1.00269314 40281,30.7015,6.82e-05,1.00269314,117.6507,246.5312,120.4644
36395,SDO,IGO,21022.29791013,1 36395U 10005A   21022.29791013 -.00000075  00000-0  00000-0 0    18\,2 36395  30.7032 117.6343 0000710 250.7573 118.6065  1.00269265 40298,30.7032,7.1e-05,1.00269265,117.6343,250.7573,118.6065
36395,SDO,IGO,21023.30100359,1 36395U 10005A   21023.30100359 -.00000078  00000-0  00000-0 0    11\,2 36395  30.7048 117.6180 0000614 249.8411 121.6294  1.00269212 40309,30.7048,6.14e-05,1.00269212,117.618,249.8411,121.6294
36395,SDO,IGO,21024.28275306,1 36395U 10005A   21024.28275306 -.00000081  00000-0  00000-0 0    18\,2 36395  30.7064 117.6019 0000596 253.3648 112.5064  1.00269123 40315,30.7064,5.96e-05,1.00269123,117.6019,253.3648,112.5064
36395,SDO,IGO,21025.27787330,1 36395U 10005A   21025.27787330 -.00000083  00000-0  00000-0 0    15\,2 36395  30.7079 117.5856 0000597 257.5817 107.5165  1.00269010 40326,30.7079,5.97e-05,1.0026901,117.5856,257.5817,107.5165
36395,SDO,IGO,21027.17100628,1 36395U 10005A   21027.17100628 -.00000085  00000-0  00000+0 0  4122\,2 36395  30.7109 117.5544 0000653 266.4566  62.0396  1.00268738 40302,30.7109,6.53e-05,1.00268738,117.5544,266.4566,62.0396
36395,SDO,IGO,21027.49585887,1 36395U 10005A   21027.49585887 -.00000085  00000-0  00000-0 0    16\,2 36395  30.7112 117.5490 0000782 267.1172 178.6454  1.00268699 40349,30.7112,7.82e-05,1.00268699,117.549,267.1172,178.6454
36395,SDO,IGO,21029.25100237,1 36395U 10005A   21029.25100237 -.00000082  00000-0  00000-0 0    11\,2 36395  30.7140 117.5195 0000831 271.5007  87.8463  1.00268422 40359,30.714,8.31e-05,1.00268422,117.5195,271.5007,87.8463
36395,SDO,IGO,21032.23176365,1 36395U 10005A   21032.23176365 -.00000075  00000-0  00000+0 0  4147\,2 36395  30.7190 117.4687 0000965 273.2424  82.1188  1.00268027 40352,30.719,9.65e-05,1.00268027,117.4687,273.2424,82.1188
36395,SDO,IGO,21033.23662296,1 36395U 10005A   21033.23662296 -.00000075  00000-0  00000-0 0    14\,2 36395  30.7207 117.4514 0001035 272.9177  85.1831  1.00267925 40398,30.7207,0.0001035,1.00267925,117.4514,272.9177,85.1831
